ZACUBE-2                
1 43907U 18111AH  24100.65583910  .00445651  79565-4  12742-2 0  9998
2 43907  97.0732 343.8548 0007644 165.7991 194.3501 15.93163236295409
SONATE                  
1 44400U 19038Q   24100.90709655  .00018916  00000+0  63648-3 0  9995
2 44400  97.7122  92.1318 0016494 357.1380   2.9763 15.30711900263620
LUCKY-7                 
1 44406U 19038W   24100.93787415  .00032112  00000+0  85198-3 0  9992
2 44406  97.7045  95.4017 0012906 345.5807  14.5066 15.38163451263851
BEESAT 9                
1 44412U 19038AC  24100.74507410  .00145580  00000+0  14838-2 0  9999
2 44412  97.6842 102.2649 0002739 334.6182  25.4941 15.64630764264026
JAISAT-1                
1 44419U 19038F   24100.95520280  .00125260  00000+0  13313-2 0  9999
2 44419  97.6826 103.5232 0002661 336.7517  23.3620 15.63629268264438
DUCHIFAT-3              
1 44854U 19089C   24100.72112487  .00012792  00000+0  69950-3 0  9993
2 44854  36.9573 103.8880 0010042 244.8825 115.0879 15.13653015237887
M2 PATHFINDER           
1 45727U 20037E   24100.93307520  .00002229  00000+0  20132-3 0  9998
2 45727  97.7736 277.7711 0011258 357.6773   2.4394 14.96466089205735
NETSAT-4                
1 46504U 20068U   24100.61532405  .00009782  00000+0  55251-3 0  9994
2 46504  97.8014  56.0220 0008329 228.6995 131.3519 15.13308051193797
NETSAT-3                
1 46505U 20068V   24100.51020382  .00008730  00000+0  50008-3 0  9997
2 46505  97.7980  55.5030 0007425 239.3409 120.7090 15.12843662193772
NETSAT-1                
1 46506U 20068W   24100.62524488  .00007635  00000+0  45371-3 0  9996
2 46506  97.8005  55.2346 0006200 252.1912 107.8641 15.11565775193763
NETSAT-2                
1 46507U 20068X   24100.62851062  .00009958  00000+0  56399-3 0  9990
2 46507  97.7994  55.6907 0005257 258.5133 101.5507 15.13219111193745
WILDTRACKCUBE-SIMBA     
1 47941U 21022K   24100.92045252  .00012111  00000+0  57892-3 0  9997
2 47941  97.4685 358.3864 0017254  30.2856 329.9371 15.19024748168095
BEESAT-6                
1 47957U 21022AB  24100.19227413  .00070437  00000+0  14174-2 0  9994
2 47957  97.4542   5.5333 0009185  23.3916 336.7749 15.46315218168326
SMOG-1                  
1 47964U 21022AJ  24100.48430954  .00061929  00000+0  12439-2 0  9998
2 47964  97.4713   8.8644 0007100   6.3600 353.7738 15.46423930167553
BCCSAT-1                
1 48041U 21022AK  24100.46960130  .00040877  00000+0  10888-2 0  9992
2 48041  97.4701   5.8605 0007669   7.2522 352.8832 15.38042524167332
BEESAT-5                
1 48083U 21022AM  24100.49208718  .00115684  00000+0  19029-2 0  9993
2 48083  97.4361   6.7336 0007708  25.2506 334.9122 15.51922292167604
BEESAT-7                
1 48084U 21022AN  24100.66815353  .00052861  00000+0  11582-2 0  9995
2 48084  97.4658   6.3124 0009047  11.0747 349.0698 15.43888163167135
BEESAT-8                
1 48085U 21022AP  24099.97508077  .00021470  00000+0  79312-3 0  9997
2 48085  97.4802   1.5758 0014085  24.0048 336.1845 15.27665344167297
LEDSAT                  
1 49069U 21073D   24100.94294442  .00014852  00000+0  65076-3 0  9992
2 49069  97.4425 172.6549 0021396 161.7113 198.4897 15.21896739146060
SITRO-AIS 5 (KATYS)     
1 57176U 23091L   24100.93615051  .00006388  00000+0  42906-3 0  9996
2 57176  97.6208 153.7491 0017613   0.4281 359.6958 15.07020964 43212
SITRO-AIS 6 (CHIRKIN)   
1 57192U 23091AC  24100.92407946  .00005825  00000+0  39102-3 0  9994
2 57192  97.6202 153.7574 0017415   0.0543   0.0683 15.07082851 43218
SITRO-AIS 8 (ANOKHIN)   
1 57193U 23091AD  24100.90425682  .00007533  00000+0  50143-3 0  9996
2 57193  97.6192 153.7771 0017178   0.0836   0.0392 15.07297495 43216
SITRO-AIS 7 (FARTUSHNIY)
1 57194U 23091AE  24100.92722406  .00006216  00000+0  41736-3 0  9998
2 57194  97.6201 153.7480 0017283   0.8421 359.2833 15.07045288 43210
SITRO-AIS 10 (BURDAEV)  
1 57199U 23091AK  24100.88709828  .00007761  00000+0  49443-3 0  9990
2 57199  97.6217 154.4649 0011935 350.8898   9.2112 15.08970331 43254
SITRO-AIS 9 (SHCHUKIN)  
1 57201U 23091AM  24100.88498969  .00007796  00000+0  49657-3 0  9990
2 57201  97.6212 154.4491 0011873 350.9023   9.1989 15.08975998 43255
SITRO-AIS 12 (SMIRENNIY)
1 57204U 23091AQ  24100.92200034  .00006903  00000+0  43816-3 0  9992
2 57204  97.6216 154.5903 0011636 344.7415  15.3461 15.09145639 43261
SITRO-AIS 11 (SHEFFER)  
1 57208U 23091AU  24100.91121579  .00007431  00000+0  47056-3 0  9998
2 57208  97.6211 154.5954 0011512 344.4590  15.6284 15.09207156 43269
SITRO-AIS B             
1 59052U 24039B   24100.90053896  .00019572  00000+0  80412-3 0  9997
2 59052  97.3880  63.6680 0022437  97.0567 263.3223 15.23993820  6187
SITRO-AIS C             
1 59053U 24039C   24100.90025917  .00019500  00000+0  80066-3 0  9997
2 59053  97.3879  63.6666 0022512  97.7389 262.6406 15.24013197  6178
SITRO-AIS 31            
1 59054U 24039D   24100.89811473  .00019730  00000+0  80799-3 0  9994
2 59054  97.3878  63.6693 0022370  97.7363 262.6415 15.24102674  6193
SITRO-AIS 33            
1 59055U 24039E   24100.89552705  .00019427  00000+0  79330-3 0  9997
2 59055  97.3881  63.6744 0022113  98.1464 262.2283 15.24206552  6185
SITRO-AIS F             
1 59056U 24039F   24100.89392393  .00018752  00000+0  76507-3 0  9996
2 59056  97.3880  63.6757 0021941  98.3098 262.0629 15.24248071  6186
SITRO-AIS G             
1 59057U 24039G   24100.89542059  .00018272  00000+0  74697-3 0  9998
2 59057  97.3880  63.6739 0021872  98.4520 261.9198 15.24187071  6182
SITRO-AIS 35            
1 59058U 24039H   24100.89460486  .00018953  00000+0  77335-3 0  9990
2 59058  97.3881  63.6761 0022060  98.3616 262.0124 15.24239343  6185
SITRO-AIS 36            
1 59059U 24039J   24100.89219698  .00019291  00000+0  78557-3 0  9991
2 59059  97.3881  63.6786 0021617  98.3584 262.0105 15.24312504  6184
SITRO-AIS 49            
1 59060U 24039K   24100.89155407  .00018095  00000+0  73670-3 0  9992
2 59060  97.3880  63.6792 0021591  98.3386 262.0301 15.24334176  6180
SITRO-AIS 50            
1 59061U 24039L   24100.88994214  .00019642  00000+0  79696-3 0  9992
2 59061  97.3880  63.6815 0021625  98.3940 261.9750 15.24429754  6184
SITRO-AIS 51            
1 59062U 24039M   24100.88916370  .00019342  00000+0  78429-3 0  9990
2 59062  97.3880  63.6824 0021539  98.3226 262.0455 15.24456147  6186
SITRO-AIS 52            
1 59063U 24039N   24100.88717450  .00018245  00000+0  73859-3 0  9992
2 59063  97.3881  63.6850 0021353  98.0485 262.3176 15.24528245  6187
SITRO-AIS 25            
1 59066U 24039R   24100.89209244  .00003748  00000+0  36947-3 0  9992
2 59066  95.3989  51.1606 0173087 217.1114 141.8038 14.81744285  5995
SITRO-AIS 26            
1 59067U 24039S   24100.89155132  .00003592  00000+0  35434-3 0  9996
2 59067  95.3988  51.1607 0172875 217.1412 141.7746 14.81757134  5993
SITRO-AIS 27            
1 59068U 24039T   24100.88860812  .00003733  00000+0  36719-3 0  9998
2 59068  95.3990  51.1648 0172647 217.0208 141.9000 14.81876143  5998
SITRO-AIS 28            
1 59071U 24039U   24100.88762108  .00003625  00000+0  35649-3 0  9992
2 59071  95.3991  51.1662 0172501 217.0219 141.8999 14.81909630  5994
BEIJING 1               
1 28890U 05043A   24100.93790521  .00000477  00000+0  10405-3 0  9992
2 28890  98.1889 224.3367 0013743 258.8536 101.1121 14.62219689983920
HJ-1A                   
1 33320U 08041A   24100.93514658  .00001637  00000+0  22479-3 0  9995
2 33320  97.6347 111.3312 0019110 231.1078 128.8431 14.79523909840160
HJ-1B                   
1 33321U 08041B   24100.95533003  .00001135  00000+0  15528-3 0  9993
2 33321  97.6307 115.8887 0036933 279.4064  80.2974 14.79950803840198
YAOGAN 4                
1 33446U 08061A   24100.38418229  .00001534  00000+0  21215-3 0  9995
2 33446  97.8762  33.6042 0015963 144.7220 215.5051 14.79411822827389
DEIMOS-1                
1 35681U 09041A   24100.93730455  .00000746  00000+0  12302-3 0  9997
2 35681  97.6801 286.5270 0000605 172.6317 187.4901 14.73140128789267
UK-DMC 2                
1 35683U 09041C   24100.94305051  .00001155  00000+0  18696-3 0  9997
2 35683  97.7709 251.4484 0001106  89.1469 270.9866 14.73042423788910
RISAT 1                 
1 38248U 12017A   24100.95573345  .00009606  00000+0  42253-3 0  9993
2 38248  97.5283 118.1924 0004981 114.1870 245.9887 15.22077421659195
DMC3-FM1                
1 40715U 15032A   24100.90967607  .00000848  00000+0  10946-3 0  9991
2 40715  97.7600 341.7980 0006481 144.3935 215.7712 14.83467031471451
DMC3-FM2                
1 40716U 15032B   24100.93277383  .00000854  00000+0  11017-3 0  9997
2 40716  97.7652 342.8445 0008267 151.3721 208.7948 14.83470577471454
DMC3-FM3                
1 40717U 15032C   24100.95522173  .00000654  00000+0  85855-4 0  9990
2 40717  97.7699 344.1058 0009808 149.7463 210.4320 14.83442523471462
NOAA 15                 
1 25338U 98030A   24100.85196279  .00000212  00000+0  10596-3 0  9993
2 25338  98.5759 129.3868 0010854 158.7778 201.3855 14.26530270347440
DMSP 5D-3 F16 (USA 172) 
1 28054U 03048A   24100.92933653  .00000189  00000+0  12346-3 0  9997
2 28054  99.0231 106.7548 0006263 242.3173 139.4713 14.13986468 56655
NOAA 18                 
1 28654U 05018A   24100.88522643  .00000260  00000+0  16263-3 0  9992
2 28654  98.8762 178.4148 0013268 255.0612 104.9091 14.13163217973520
METEOSAT-9 (MSG-2)      
1 28912U 05049B   24100.52314240  .00000122  00000+0  00000+0 0  9991
2 28912   7.5306  61.4261 0001506 316.4846  54.3550  1.00270794 67071
EWS-G1 (GOES 13)        
1 29155U 06018A   24100.90307727 -.00000279  00000+0  00000+0 0  9996
2 29155   2.4479  86.0446 0087577 252.8499 341.4228  0.99158630 35352
